GSAT0101 (PRN E11)      
1 37846U 11060A   23030.84713694 -.00000086  00000+0  00000+0 0  9999
2 37846  57.0671  15.1609 0003469 338.2887  21.6974  1.70476066 70091
GSAT0102 (PRN E12)      
1 37847U 11060B   23031.63750769 -.00000085  00000+0  00000+0 0  9991
2 37847  57.0691  15.1392 0005093 319.8790 211.9382  1.70475417 70115
GSAT0103 (PRN E19)      
1 38857U 12055A   23032.05916958 -.00000034  00000+0  00000+0 0  9993
2 38857  55.2078 135.4122 0003301 244.5384 115.4091  1.70473662 64002
GSAT0104 (PRN E20)      
1 38858U 12055B   23030.85576604 -.00000032  00000+0  00000+0 0  9998
2 38858  55.2079 135.4468 0001619 207.5924 152.3812  1.70473839 63989
GSAT0201 (PRN E18)      
1 40128U 14050A   23031.20546794 -.00000118  00000+0  00000+0 0  9990
2 40128  50.1171 323.2029 1612545 132.2724 242.5871  1.85519481 55447
GSAT0202 (PRN E14)      
1 40129U 14050B   23027.69268496 -.00000117  00000+0  00000+0 0  9998
2 40129  50.1424 322.4097 1610123 132.9491 241.7422  1.85520003 57541
GSAT0203 (PRN E26)      
1 40544U 15017A   23025.93384439 -.00000084  00000+0  00000+0 0  9997
2 40544  56.8609  15.2970 0004962 272.5631  87.3799  1.70475741 48094
GSAT0204 (PRN E22)      
1 40545U 15017B   23032.05296529 -.00000085  00000+0  00000+0 0  9992
2 40545  56.8667  15.1435 0004286 265.2627  94.6880  1.70475615 11246
GSAT0205 (PRN E24)      
1 40889U 15045A   23028.88824907  .00000035  00000+0  00000+0 0  9991
2 40889  55.4841 255.7342 0006432  28.7429 331.3555  1.70473166 45956
GSAT0206 (PRN E30)      
1 40890U 15045B   23030.86872597  .00000047  00000+0  00000+0 0  9995
2 40890  55.4813 255.6749 0004453  23.8220 336.2680  1.70473383 46015
GSAT0209 (PRN E09)      
1 41174U 15079A   23030.45461972 -.00000031  00000+0  00000+0 0  9998
2 41174  55.2248 135.1616 0002771 303.8860  56.0711  1.70474916 43740
GSAT0208 (PRN E08)      
1 41175U 15079B   23031.26072805 -.00000034  00000+0  00000+0 0  9995
2 41175  55.2232 135.1378 0003578 294.3785  65.5665  1.70474467 44177
GSAT0211 (PRN E02)      
1 41549U 16030A   23031.96758181  .00000053  00000+0  00000+0 0  9993
2 41549  55.6263 255.6017 0004520   1.4855 358.5894  1.70473419 41667
GSAT0210 (PRN E01)      
1 41550U 16030B   23031.08616399  .00000049  00000+0  00000+0 0  9997
2 41550  55.6272 255.6273 0002638 343.6966  16.3652  1.70474872 41648
GSAT0207 (PRN E07)      
1 41859U 16069A   23032.50836831 -.00000034  00000+0  00000+0 0  9999
2 41859  54.8866 135.2299 0003697 284.0136  75.9274  1.70474767 38408
GSAT0212 (PRN E03)      
1 41860U 16069B   23031.18925469 -.00000034  00000+0  00000+0 0  9990
2 41860  54.8839 135.2636 0001533 320.3069  39.6638  1.70473563 38630
GSAT0213 (PRN E04)      
1 41861U 16069C   23031.55447178 -.00000035  00000+0  00000+0 0  9999
2 41861  54.8865 135.2592 0003357 255.4591 104.4854  1.70473625 38635
GSAT0214 (PRN E05)      
1 41862U 16069D   23031.70163268 -.00000035  00000+0  00000+0 0  9992
2 41862  54.8848 135.2494 0002434 253.7343 106.2206  1.70473741 38639
GSAT0215 (PRN E21)      
1 43055U 17079A   23031.01863576  .00000049  00000+0  00000+0 0  9997
2 43055  55.6039 255.4570 0002010 344.4561  15.6077  1.70474071 31961
GSAT0216 (PRN E25)      
1 43056U 17079B   23031.89729525  .00000053  00000+0  00000+0 0  9994
2 43056  55.6035 255.4324 0003017 318.8208  41.2296  1.70474153 31998
GSAT0217 (PRN E27)      
1 43057U 17079C   23030.94443371  .00000048  00000+0  00000+0 0  9996
2 43057  55.6023 255.4582 0003326 341.3156  18.7418  1.70474059 31965
GSAT0218 (PRN E31)      
1 43058U 17079D   23029.99125821  .00000043  00000+0  00000+0 0  9992
2 43058  55.6027 255.4820 0003540 308.1848  51.8494  1.70474161 31979
GSAT0221 (PRN E15)      
1 43564U 18060A   23029.30311606 -.00000086  00000+0  00000+0 0  9996
2 43564  57.2433  15.0781 0005605 287.1126  72.8270  1.70475720 28114
GSAT0222 (PRN E33)      
1 43565U 18060B   23030.69616735 -.00000086  00000+0  00000+0 0  9992
2 43565  57.2455  15.0412 0005273 293.5392  66.4061  1.70475707 28186
GSAT0219 (PRN E36)      
1 43566U 18060C   23031.50328281 -.00000085  00000+0  00000+0 0  9999
2 43566  57.2467  15.0214 0004965 294.9326  65.0158  1.70475814 28179
GSAT0220 (PRN E13)      
1 43567U 18060D   23029.96382933 -.00000086  00000+0  00000+0 0  9992
2 43567  57.2451  15.0625 0005149 290.8898  69.0561  1.70475708 28133
GSAT0223                
1 49809U 21116A   23031.57305514 -.00000085  00000+0  00000+0 0  9992
2 49809  57.2378  14.9164 0002376 259.5520  98.1775  1.70476004  7165
GSAT0224                
1 49810U 21116B   23032.27588396 -.00000085  00000+0  00000+0 0  9993
2 49810  57.2378  14.8957 0002031 270.8437 270.7003  1.70475967  7201
